[{"OBJECT_NAME":"STARLINK-30932","OBJECT_ID":"2023-191R","EPOCH":"2026-03-09T10:09:55.485504","MEAN_MOTION":15.27240316,"ECCENTRICITY":9.319e-5,"INCLINATION":42.9994,"RA_OF_ASC_NODE":104.6731,"ARG_OF_PERICENTER":208.9228,"MEAN_ANOMALY":151.1572,"EPHEMERIS_TYPE":0,"CLASSIFICATION_TYPE":"U","NORAD_CAT_ID":58523,"ELEMENT_SET_NO":999,"REV_AT_EPOCH":12538,"BSTAR":0.0042662008,"MEAN_MOTION_DOT":0.00117798,"MEAN_MOTION_DDOT":0},{"OBJECT_NAME":"CZ-6A DEB","OBJECT_ID":"2022-151AJB","EPOCH":"2026-02-27T14:06:27.470880","MEAN_MOTION":15.13235807,"ECCENTRICITY":0.00651829,"INCLINATION":98.7617,"RA_OF_ASC_NODE":191.4844,"ARG_OF_PERICENTER":85.1472,"MEAN_ANOMALY":275.7194,"EPHEMERIS_TYPE":0,"CLASSIFICATION_TYPE":"U","NORAD_CAT_ID":58433,"ELEMENT_SET_NO":999,"REV_AT_EPOCH":15167,"BSTAR":0.0027921214,"MEAN_MOTION_DOT":0.00052525,"MEAN_MOTION_DDOT":0}]
